CCSDS_OMM_VERS = 2.0
CREATION_DATE  = 
ORIGINATOR     = 

OBJECT_NAME    = SL-16 R/B
OBJECT_ID      = 1998-043G
CENTER_NAME    = EARTH
REF_FRAME      = TEME
TIME_SYSTEM    = UTC
MEAN_ELEMENT_THEORY = SGP/SGP4

EPOCH          = 2026-03-03T20:06:32.453568
MEAN_MOTION    = 14.26048201
ECCENTRICITY   = .0010484
INCLINATION    = 98.8245
RA_OF_ASC_NODE = 16.1602
ARG_OF_PERICENTER = 36.4826
MEAN_ANOMALY   = 323.7065

EPHEMERIS_TYPE = 0
CLASSIFICATION_TYPE = U
NORAD_CAT_ID   = 25400
ELEMENT_SET_NO = 999
REV_AT_EPOCH   = 43815
BSTAR          = .54581E-4
MEAN_MOTION_DOT = .85E-6
MEAN_MOTION_DDOT = 0

CCSDS_OMM_VERS = 2.0
CREATION_DATE  = 
ORIGINATOR     = 

OBJECT_NAME    = SL-16 R/B
OBJECT_ID      = 1998-045B
CENTER_NAME    = EARTH
REF_FRAME      = TEME
TIME_SYSTEM    = UTC
MEAN_ELEMENT_THEORY = SGP/SGP4

EPOCH          = 2026-03-03T18:45:01.037664
MEAN_MOTION    = 14.16189420
ECCENTRICITY   = .00063946
INCLINATION    = 71.0112
RA_OF_ASC_NODE = 193.9979
ARG_OF_PERICENTER = 17.0539
MEAN_ANOMALY   = 343.0798

EPHEMERIS_TYPE = 0
CLASSIFICATION_TYPE = U
NORAD_CAT_ID   = 25407
ELEMENT_SET_NO = 999
REV_AT_EPOCH   = 42626
BSTAR          = -.80139162E-4
MEAN_MOTION_DOT = -.206E-5
MEAN_MOTION_DDOT = 0

CCSDS_OMM_VERS = 2.0
CREATION_DATE  = 
ORIGINATOR     = 

OBJECT_NAME    = ISS (ZARYA)
OBJECT_ID      = 1998-067A
CENTER_NAME    = EARTH
REF_FRAME      = TEME
TIME_SYSTEM    = UTC
MEAN_ELEMENT_THEORY = SGP/SGP4

EPOCH          = 2026-03-04T03:45:47.118240
MEAN_MOTION    = 15.48434477
ECCENTRICITY   = .0008201
INCLINATION    = 51.6316
RA_OF_ASC_NODE = 99.7104
ARG_OF_PERICENTER = 155.0339
MEAN_ANOMALY   = 205.1047

EPHEMERIS_TYPE = 0
CLASSIFICATION_TYPE = U
NORAD_CAT_ID   = 25544
ELEMENT_SET_NO = 999
REV_AT_EPOCH   = 55547
BSTAR          = .19684E-3
MEAN_MOTION_DOT = .10207E-3
MEAN_MOTION_DDOT = 0

CCSDS_OMM_VERS = 2.0
CREATION_DATE  = 
ORIGINATOR     = 

OBJECT_NAME    = CZ-4B R/B
OBJECT_ID      = 1999-025C
CENTER_NAME    = EARTH
REF_FRAME      = TEME
TIME_SYSTEM    = UTC
MEAN_ELEMENT_THEORY = SGP/SGP4

EPOCH          = 2026-03-04T02:10:31.567296
MEAN_MOTION    = 14.18264047
ECCENTRICITY   = .0037062
INCLINATION    = 98.6638
RA_OF_ASC_NODE = 107.5046
ARG_OF_PERICENTER = 2.7704
MEAN_ANOMALY   = 50.8330

EPHEMERIS_TYPE = 0
CLASSIFICATION_TYPE = U
NORAD_CAT_ID   = 25732
ELEMENT_SET_NO = 999
REV_AT_EPOCH   = 38737
BSTAR          = .61276E-4
MEAN_MOTION_DOT = .84E-6
MEAN_MOTION_DDOT = 0

CCSDS_OMM_VERS = 2.0
CREATION_DATE  = 
ORIGINATOR     = 

OBJECT_NAME    = OKEAN-O
OBJECT_ID      = 1999-039A
CENTER_NAME    = EARTH
REF_FRAME      = TEME
TIME_SYSTEM    = UTC
MEAN_ELEMENT_THEORY = SGP/SGP4

EPOCH          = 2026-03-04T02:37:23.373984
MEAN_MOTION    = 14.80325385
ECCENTRICITY   = .000143
INCLINATION    = 97.9453
RA_OF_ASC_NODE = 123.0572
ARG_OF_PERICENTER = 70.8180
MEAN_ANOMALY   = 289.3186

EPHEMERIS_TYPE = 0
CLASSIFICATION_TYPE = U
NORAD_CAT_ID   = 25860
ELEMENT_SET_NO = 999
REV_AT_EPOCH   = 43356
BSTAR          = .13276E-3
MEAN_MOTION_DOT = .96E-5
MEAN_MOTION_DDOT = 0

CCSDS_OMM_VERS = 2.0
CREATION_DATE  = 
ORIGINATOR     = 

OBJECT_NAME    = SL-16 R/B
OBJECT_ID      = 1999-039B
CENTER_NAME    = EARTH
REF_FRAME      = TEME
TIME_SYSTEM    = UTC
MEAN_ELEMENT_THEORY = SGP/SGP4

EPOCH          = 2026-03-04T03:53:12.577632
MEAN_MOTION    = 14.81723034
ECCENTRICITY   = .0013446
INCLINATION    = 97.9977
RA_OF_ASC_NODE = 122.2666
ARG_OF_PERICENTER = 275.9477
MEAN_ANOMALY   = 84.0203

EPHEMERIS_TYPE = 0
CLASSIFICATION_TYPE = U
NORAD_CAT_ID   = 25861
ELEMENT_SET_NO = 999
REV_AT_EPOCH   = 43604
BSTAR          = .11439E-3
MEAN_MOTION_DOT = .848E-5
MEAN_MOTION_DDOT = 0

CCSDS_OMM_VERS = 2.0
CREATION_DATE  = 
ORIGINATOR     = 

OBJECT_NAME    = DELTA 2 R/B
OBJECT_ID      = 1999-041E
CENTER_NAME    = EARTH
REF_FRAME      = TEME
TIME_SYSTEM    = UTC
MEAN_ELEMENT_THEORY = SGP/SGP4

EPOCH          = 2026-03-04T03:10:31.384416
MEAN_MOTION    = 14.11818994
ECCENTRICITY   = .0502347
INCLINATION    = 51.7645
RA_OF_ASC_NODE = 323.4770
ARG_OF_PERICENTER = 332.0291
MEAN_ANOMALY   = 25.4449

EPHEMERIS_TYPE = 0
CLASSIFICATION_TYPE = U
NORAD_CAT_ID   = 25876
ELEMENT_SET_NO = 999
REV_AT_EPOCH   = 36224
BSTAR          = .34235E-3
MEAN_MOTION_DOT = .1895E-4
MEAN_MOTION_DDOT = 0

CCSDS_OMM_VERS = 2.0
CREATION_DATE  = 
ORIGINATOR     = 

OBJECT_NAME    = HELIOS 1B
OBJECT_ID      = 1999-064A
CENTER_NAME    = EARTH
REF_FRAME      = TEME
TIME_SYSTEM    = UTC
MEAN_ELEMENT_THEORY = SGP/SGP4

EPOCH          = 2026-03-04T03:09:05.981472
MEAN_MOTION    = 14.87671331
ECCENTRICITY   = .0002519
INCLINATION    = 98.1702
RA_OF_ASC_NODE = 325.2112
ARG_OF_PERICENTER = 82.6134
MEAN_ANOMALY   = 277.5367

EPHEMERIS_TYPE = 0
CLASSIFICATION_TYPE = U
NORAD_CAT_ID   = 25977
ELEMENT_SET_NO = 999
REV_AT_EPOCH   = 68443
BSTAR          = .34136E-3
MEAN_MOTION_DOT = .305E-4
MEAN_MOTION_DDOT = 0

CCSDS_OMM_VERS = 2.0
CREATION_DATE  = 
ORIGINATOR     = 

OBJECT_NAME    = TERRA
OBJECT_ID      = 1999-068A
CENTER_NAME    = EARTH
REF_FRAME      = TEME
TIME_SYSTEM    = UTC
MEAN_ELEMENT_THEORY = SGP/SGP4

EPOCH          = 2026-03-04T04:02:48.540768
MEAN_MOTION    = 14.61008222
ECCENTRICITY   = .0002341
INCLINATION    = 97.9604
RA_OF_ASC_NODE = 116.8140
ARG_OF_PERICENTER = 164.7813
MEAN_ANOMALY   = 260.5333

EPHEMERIS_TYPE = 0
CLASSIFICATION_TYPE = U
NORAD_CAT_ID   = 25994
ELEMENT_SET_NO = 999
REV_AT_EPOCH   = 39427
BSTAR          = .14267E-3
MEAN_MOTION_DOT = .655E-5
MEAN_MOTION_DDOT = 0

CCSDS_OMM_VERS = 2.0
CREATION_DATE  = 
ORIGINATOR     = 

OBJECT_NAME    = SL-16 R/B
OBJECT_ID      = 2000-006B
CENTER_NAME    = EARTH
REF_FRAME      = TEME
TIME_SYSTEM    = UTC
MEAN_ELEMENT_THEORY = SGP/SGP4

EPOCH          = 2026-03-04T03:33:42.808032
MEAN_MOTION    = 14.15824790
ECCENTRICITY   = .0017172
INCLINATION    = 71.0013
RA_OF_ASC_NODE = 109.4896
ARG_OF_PERICENTER = 197.8700
MEAN_ANOMALY   = 162.1821

EPHEMERIS_TYPE = 0
CLASSIFICATION_TYPE = U
NORAD_CAT_ID   = 26070
ELEMENT_SET_NO = 999
REV_AT_EPOCH   = 34777
BSTAR          = .12843E-3
MEAN_MOTION_DOT = .205E-5
MEAN_MOTION_DDOT = 0

CCSDS_OMM_VERS = 2.0
CREATION_DATE  = 
ORIGINATOR     = 

OBJECT_NAME    = TITAN 4B R/B
OBJECT_ID      = 2000-047B
CENTER_NAME    = EARTH
REF_FRAME      = TEME
TIME_SYSTEM    = UTC
MEAN_ELEMENT_THEORY = SGP/SGP4

EPOCH          = 2026-03-04T03:08:17.912832
MEAN_MOTION    = 15.09497271
ECCENTRICITY   = .0038033
INCLINATION    = 67.9885
RA_OF_ASC_NODE = 56.1406
ARG_OF_PERICENTER = 41.9680
MEAN_ANOMALY   = 318.4372

EPHEMERIS_TYPE = 0
CLASSIFICATION_TYPE = U
NORAD_CAT_ID   = 26474
ELEMENT_SET_NO = 999
REV_AT_EPOCH   = 39207
BSTAR          = .37138E-3
MEAN_MOTION_DOT = .5936E-4
MEAN_MOTION_DDOT = 0

CCSDS_OMM_VERS = 2.0
CREATION_DATE  = 
ORIGINATOR     = 

OBJECT_NAME    = ENVISAT
OBJECT_ID      = 2002-009A
CENTER_NAME    = EARTH
REF_FRAME      = TEME
TIME_SYSTEM    = UTC
MEAN_ELEMENT_THEORY = SGP/SGP4

EPOCH          = 2026-03-03T20:03:02.002176
MEAN_MOTION    = 14.39034374
ECCENTRICITY   = .00013326
INCLINATION    = 98.3719
RA_OF_ASC_NODE = 16.5725
ARG_OF_PERICENTER = 84.6244
MEAN_ANOMALY   = 308.1164

EPHEMERIS_TYPE = 0
CLASSIFICATION_TYPE = U
NORAD_CAT_ID   = 27386
ELEMENT_SET_NO = 999
REV_AT_EPOCH   = 25833
BSTAR          = .70207056E-4
MEAN_MOTION_DOT = .174E-5
MEAN_MOTION_DDOT = 0

